FENGYUN 1C DEB          
1 31767U 99025CFS 17345.85544073  .00000256  00000-0  19113-3 0  9996
2 31767  99.1539   2.4622 0040799 279.5439 206.9854 14.03569851538110
